ATLAS 5 CENTAUR R/B     
1 66455U 25261B   25330.76889782 -.00000052  00000+0  00000+0 0  9996
2 66455   6.1673 293.2138 2329931 183.2713 340.9993  2.28258333   286
STARLINK-35643          
1 66456U 25262A   25333.25002315 -.01397547  00000+0 -94639-2 0  9998
2 66456  42.9993 150.7948 0001446 266.6590 335.7449 15.76832539  3476
STARLINK-35466          
1 66457U 25262B   25333.25002315 -.01380589  00000+0 -94148-2 0  9992
2 66457  42.9993 150.7842 0001598 270.8918 335.7398 15.76640648  3470
STARLINK-35684          
1 66458U 25262C   25333.25002315 -.01429833  00000+0 -97378-2 0  9997
2 66458  42.9994 150.7897 0001509 264.0040 340.4778 15.76770226  3476
STARLINK-35449          
1 66459U 25262D   25333.25002315 -.01450057  00000+0 -99999-2 0  9991
2 66459  42.9990 150.7782 0001508 267.5619 341.2193 15.76532377  3478
STARLINK-35424          
1 66460U 25262E   25333.25002315 -.01430491  00000+0 -99203-2 0  9991
2 66460  42.9993 150.7733 0001576 264.7054 346.2417 15.76366806  3472
STARLINK-35132          
1 66461U 25262F   25333.25002315 -.01312386  00000+0 -90787-2 0  9992
2 66461  42.9991 150.7679 0001397 268.6955 344.3661 15.76186111  3473
STARLINK-35499          
1 66462U 25262G   25333.25002315 -.01367870  00000+0 -95203-2 0  9999
2 66462  42.9991 150.7623 0001541 266.4083 348.6360 15.76159444  3474
STARLINK-35463          
1 66463U 25262H   25333.25002315 -.01093536  00000+0 -76551-2 0  9990
2 66463  42.9992 150.7520 0001612 267.5312 351.5971 15.75865678  3471
STARLINK-35435          
1 66464U 25262J   25333.25002315 -.01178263  00000+0 -82904-2 0  9991
2 66464  42.9992 150.7569 0001677 267.4573 349.6865 15.75950992  3478
STARLINK-35448          
1 66465U 25262K   25333.25002315 -.00003651  00000+0 -20657-4 0  9998
2 66465  42.9992 150.7408 0001983 273.1790 350.2638 15.75047843  3474
STARLINK-35388          
1 66466U 25262L   25333.25002315  .00020640  00000+0  13716-3 0  9991
2 66466  42.9991 150.7361 0001729 274.3165 351.0463 15.75035126  3475
